[{"OBJECT_NAME":"STARLINK-5135","OBJECT_ID":"2022-125AT","EPOCH":"2026-03-09T16:06:10.090368","MEAN_MOTION":15.08844143,"ECCENTRICITY":0.00012368,"INCLINATION":53.2166,"RA_OF_ASC_NODE":213.9254,"ARG_OF_PERICENTER":85.55,"MEAN_ANOMALY":274.5633,"EPHEMERIS_TYPE":0,"CLASSIFICATION_TYPE":"U","NORAD_CAT_ID":54005,"ELEMENT_SET_NO":999,"REV_AT_EPOCH":18946,"BSTAR":-9.669634e-6,"MEAN_MOTION_DOT":-4.42e-6,"MEAN_MOTION_DDOT":0},{"OBJECT_NAME":"UNKNOWN","OBJECT_ID":"","EPOCH":"2026-03-07T20:34:11.411328","MEAN_MOTION":13.11333445,"ECCENTRICITY":0.0894896,"INCLINATION":65.8286,"RA_OF_ASC_NODE":264.5373,"ARG_OF_PERICENTER":244.8718,"MEAN_ANOMALY":105.693,"EPHEMERIS_TYPE":0,"CLASSIFICATION_TYPE":"U","NORAD_CAT_ID":81792,"ELEMENT_SET_NO":999,"REV_AT_EPOCH":9119,"BSTAR":0.00068623,"MEAN_MOTION_DOT":1.902e-5,"MEAN_MOTION_DDOT":0}]
